{
    "links": {
        "self": "http://www.neowsapp.com/rest/v1/neo/54079789?api_key=iIulBulltgU6a56xZRHN4H3l9WmuAYTsLGpBGhQ2"
    },
    "id": "54079789",
    "neo_reference_id": "54079789",
    "name": "(2020 UM6)",
    "designation": "2020 UM6",
    "nasa_jpl_url": "http://ssd.jpl.nasa.gov/sbdb.cgi?sstr=54079789",
    "absolute_magnitude_h": 25.368,
    "estimated_diameter": {
        "kilometers": {
            "estimated_diameter_min": 0.0224364931,
            "estimated_diameter_max": 0.0501695238
        },
        "meters": {
            "estimated_diameter_min": 22.4364931217,
            "estimated_diameter_max": 50.1695237967
        },
        "miles": {
            "estimated_diameter_min": 0.0139413862,
            "estimated_diameter_max": 0.0311738872
        },
        "feet": {
            "estimated_diameter_min": 73.6105440933,
            "estimated_diameter_max": 164.5981804533
        }
    },
    "is_potentially_hazardous_asteroid": false,
    "close_approach_data": [
        {
            "close_approach_date": "2020-10-24",
            "close_approach_date_full": "2020-Oct-24 22:38",
            "epoch_date_close_approach": 1603579080000,
            "relative_velocity": {
                "kilometers_per_second": "11.7200858591",
                "kilometers_per_hour": "42192.3090928374",
                "miles_per_hour": "26216.6600582689"
            },
            "miss_distance": {
                "astronomical": "0.0143434105",
                "lunar": "5.5795866845",
                "kilometers": "2145743.659335635",
                "miles": "1333303.283816363"
            },
            "orbiting_body": "Earth"
        },
        {
            "close_approach_date": "2183-02-06",
            "close_approach_date_full": "2183-Feb-06 08:50",
            "epoch_date_close_approach": 6724803000000,
            "relative_velocity": {
                "kilometers_per_second": "3.618669801",
                "kilometers_per_hour": "13027.2112834964",
                "miles_per_hour": "8094.6024777925"
            },
            "miss_distance": {
                "astronomical": "1.7985651552",
                "lunar": "699.6418453728",
                "kilometers": "269061516.274139424",
                "miles": "167187073.6451310912"
            },
            "orbiting_body": "Juptr"
        },
        {
            "close_approach_date": "2188-11-19",
            "close_approach_date_full": "2188-Nov-19 21:17",
            "epoch_date_close_approach": 6907411020000,
            "relative_velocity": {
                "kilometers_per_second": "20.7029315643",
                "kilometers_per_hour": "74530.5536315653",
                "miles_per_hour": "46310.3876162357"
            },
            "miss_distance": {
                "astronomical": "0.3467079956",
                "lunar": "134.8694102884",
                "kilometers": "51866777.653729372",
                "miles": "32228521.1776424536"
            },
            "orbiting_body": "Earth"
        }
    ],
    "orbital_data": {
        "orbit_id": "7",
        "orbit_determination_date": "2020-11-11 05:27:20",
        "first_observation_date": "2020-10-26",
        "last_observation_date": "2020-11-11",
        "data_arc_in_days": 16,
        "observations_used": 129,
        "orbit_uncertainty": "7",
        "minimum_orbit_intersection": ".0098841",
        "jupiter_tisserand_invariant": "3.215",
        "epoch_osculation": "2459000.5",
        "eccentricity": ".6157833868987338",
        "semi_major_axis": "2.429290208640892",
        "inclination": "4.675179715114821",
        "ascending_node_longitude": "36.50640838985436",
        "orbital_period": "1382.985180664765",
        "perihelion_distance": ".9333736562040719",
        "perihelion_argument": "319.6085441352121",
        "aphelion_distance": "3.925206761077713",
        "perihelion_time": "2459120.953423952218",
        "mean_anomaly": "328.6451935790411",
        "mean_motion": ".2603064769117463",
        "equinox": "J2000",
        "orbit_class": {
            "orbit_class_type": "APO",
            "orbit_class_description": "Near-Earth asteroid orbits which cross the Earth’s orbit similar to that of 1862 Apollo",
            "orbit_class_range": "a (semi-major axis) > 1.0 AU; q (perihelion) < 1.017 AU"
        }
    },
    "is_sentry_object": false
}